{
  "type": "FeatureCollection",
  "features": [
    {
      "type": "Feature",
      "properties": {
        "norad_id": 33901,
        "name": "COSMOS 2251 DEB",
        "group": "cosmos-2251-debris",
        "lat": -17.180337012291698,
        "lon": 58.83374639960641,
        "alt_km": 546.1383567601006,
        "timestamp": "2025-12-05T18:53:13.674618+00:00",
        "meta_object_name": "COSMOS 2251 DEB",
        "meta_object_id": "1993-036DE",
        "meta_epoch": "2025-12-04T22:21:30.729888",
        "meta_mean_motion": 15.14520629,
        "meta_eccentricity": 0.0034506,
        "meta_inclination": 73.773,
        "meta_ra_of_asc_node": 65.8058,
        "meta_arg_of_pericenter": 198.0649,
        "meta_mean_anomaly": 161.9321,
        "meta_ephemeris_type": 0,
        "meta_classification_type": "U",
        "meta_norad_cat_id": 33901,
        "meta_element_set_no": 999,
        "meta_rev_at_epoch": 89395,
        "meta_bstar": 0.0062395,
        "meta_mean_motion_dot": 0.00118526,
        "meta_mean_motion_ddot": 0,
        "tle_line1": "1 33901U 93036DE  25338.93160567  .00118526  00000+0  62395-2 0  9994",
        "tle_line2": "2 33901  73.7730  65.8058 0034506 198.0649 161.9321 15.14520629893954"
      },
      "geometry": {
        "type": "Point",
        "coordinates": [
          58.83374639960641,
          -17.180337012291698
        ]
      }
    },
    {
      "type": "Feature",
      "properties": {
        "norad_id": 33905,
        "name": "COSMOS 2251 DEB",
        "group": "cosmos-2251-debris",
        "lat": -70.42779380926298,
        "lon": -156.09039947338644,
        "alt_km": 747.4758716235801,
        "timestamp": "2025-12-05T18:53:13.674628+00:00",
        "meta_object_name": "COSMOS 2251 DEB",
        "meta_object_id": "1993-036DJ",
        "meta_epoch": "2025-12-05T01:13:29.860320",
        "meta_mean_motion": 14.35340287,
        "meta_eccentricity": 0.00593624,
        "meta_inclination": 73.8867,
        "meta_ra_of_asc_node": 330.875,
        "meta_arg_of_pericenter": 221.8177,
        "meta_mean_anomaly": 195.3094,
        "meta_ephemeris_type": 0,
        "meta_classification_type": "U",
        "meta_norad_cat_id": 33905,
        "meta_element_set_no": 999,
        "meta_rev_at_epoch": 87577,
        "meta_bstar": 0.0014788071,
        "meta_mean_motion_dot": 4.301e-05,
        "meta_mean_motion_ddot": 0,
        "tle_line1": "1 33905U 93036DJ  25339.05104005  .00004301  00000+0  14788-2 0  9995",
        "tle_line2": "2 33905  73.8867 330.8750 0059362 221.8177 195.3094 14.35340287875772"
      },
      "geometry": {
        "type": "Point",
        "coordinates": [
          -156.09039947338644,
          -70.42779380926298
        ]
      }
    },
    {
      "type": "Feature",
      "properties": {
        "norad_id": 33906,
        "name": "COSMOS 2251 DEB",
        "group": "cosmos-2251-debris",
        "lat": -36.191390564521086,
        "lon": -37.40871425236942,
        "alt_km": 690.2404525555103,
        "timestamp": "2025-12-05T18:53:13.674638+00:00",
        "meta_object_name": "COSMOS 2251 DEB",
        "meta_object_id": "1993-036DK",
        "meta_epoch": "2025-12-05T01:13:21.425952",
        "meta_mean_motion": 14.56873772,
        "meta_eccentricity": 0.00364807,
        "meta_inclination": 74.0307,
        "meta_ra_of_asc_node": 336.0825,
        "meta_arg_of_pericenter": 6.8179,
        "meta_mean_anomaly": 56.9694,
        "meta_ephemeris_type": 0,
        "meta_classification_type": "U",
        "meta_norad_cat_id": 33906,
        "meta_element_set_no": 999,
        "meta_rev_at_epoch": 87896,
        "meta_bstar": 0.0041859214,
        "meta_mean_motion_dot": 0.00018964,
        "meta_mean_motion_ddot": 0,
        "tle_line1": "1 33906U 93036DK  25339.05094243  .00018964  00000+0  41859-2 0  9997",
        "tle_line2": "2 33906  74.0307 336.0825 0036480   6.8179  56.9694 14.56873772878960"
      },
      "geometry": {
        "type": "Point",
        "coordinates": [
          -37.40871425236942,
          -36.191390564521086
        ]
      }
    },
    {
      "type": "Feature",
      "properties": {
        "norad_id": 33907,
        "name": "COSMOS 2251 DEB",
        "group": "cosmos-2251-debris",
        "lat": -56.08346125946918,
        "lon": -108.58595019639394,
        "alt_km": 854.5350881664272,
        "timestamp": "2025-12-05T18:53:13.674649+00:00",
        "meta_object_name": "COSMOS 2251 DEB",
        "meta_object_id": "1993-036DL",
        "meta_epoch": "2025-12-04T15:30:09.652320",
        "meta_mean_motion": 14.30393521,
        "meta_eccentricity": 0.0112898,
        "meta_inclination": 74.0709,
        "meta_ra_of_asc_node": 48.3509,
        "meta_arg_of_pericenter": 106.2263,
        "meta_mean_anomaly": 19.187,
        "meta_ephemeris_type": 0,
        "meta_classification_type": "U",
        "meta_norad_cat_id": 33907,
        "meta_element_set_no": 999,
        "meta_rev_at_epoch": 86464,
        "meta_bstar": 0.0038304,
        "meta_mean_motion_dot": 0.00010665,
        "meta_mean_motion_ddot": 0,
        "tle_line1": "1 33907U 93036DL  25338.64594505  .00010665  00000+0  38304-2 0  9999",
        "tle_line2": "2 33907  74.0709  48.3509 0112898 106.2263  19.1870 14.30393521864644"
      },
      "geometry": {
        "type": "Point",
        "coordinates": [
          -108.58595019639394,
          -56.08346125946918
        ]
      }
    },
    {
      "type": "Feature",
      "properties": {
        "norad_id": 33908,
        "name": "COSMOS 2251 DEB",
        "group": "cosmos-2251-debris",
        "lat": 51.767928840005446,
        "lon": 16.504917318251348,
        "alt_km": 936.3335142780734,
        "timestamp": "2025-12-05T18:53:13.674659+00:00",
        "meta_object_name": "COSMOS 2251 DEB",
        "meta_object_id": "1993-036DM",
        "meta_epoch": "2025-12-05T01:12:43.440192",
        "meta_mean_motion": 14.07252985,
        "meta_eccentricity": 0.02238279,
        "meta_inclination": 73.8379,
        "meta_ra_of_asc_node": 219.4089,
        "meta_arg_of_pericenter": 244.2999,
        "meta_mean_anomaly": 113.4876,
        "meta_ephemeris_type": 0,
        "meta_classification_type": "U",
        "meta_norad_cat_id": 33908,
        "meta_element_set_no": 999,
        "meta_rev_at_epoch": 85365,
        "meta_bstar": 0.0034144787,
        "meta_mean_motion_dot": 7.175e-05,
        "meta_mean_motion_ddot": 0,
        "tle_line1": "1 33908U 93036DM  25339.05050278  .00007175  00000+0  34145-2 0  9991",
        "tle_line2": "2 33908  73.8379 219.4089 0223827 244.2999 113.4876 14.07252985853658"
      },
      "geometry": {
        "type": "Point",
        "coordinates": [
          16.504917318251348,
          51.767928840005446
        ]
      }
    },
    {
      "type": "Feature",
      "properties": {
        "norad_id": 33911,
        "name": "COSMOS 2251 DEB",
        "group": "cosmos-2251-debris",
        "lat": 10.224938771016431,
        "lon": 178.33922706403374,
        "alt_km": 651.3619268400716,
        "timestamp": "2025-12-05T18:53:13.674669+00:00",
        "meta_object_name": "COSMOS 2251 DEB",
        "meta_object_id": "1993-036DQ",
        "meta_epoch": "2025-12-03T16:53:58.002720",
        "meta_mean_motion": 14.74461944,
        "meta_eccentricity": 0.0014555,
        "meta_inclination": 74.0898,
        "meta_ra_of_asc_node": 179.4419,
        "meta_arg_of_pericenter": 125.4327,
        "meta_mean_anomaly": 354.0884,
        "meta_ephemeris_type": 0,
        "meta_classification_type": "U",
        "meta_norad_cat_id": 33911,
        "meta_element_set_no": 999,
        "meta_rev_at_epoch": 88511,
        "meta_bstar": 0.0025840978,
        "meta_mean_motion_dot": 0.00017211,
        "meta_mean_motion_ddot": 0,
        "tle_line1": "1 33911U 93036DQ  25337.70414355  .00017211  00000+0  25841-2 0  9990",
        "tle_line2": "2 33911  74.0898 179.4419 0014555 125.4327 354.0884 14.74461944885113"
      },
      "geometry": {
        "type": "Point",
        "coordinates": [
          178.33922706403374,
          10.224938771016431
        ]
      }
    },
    {
      "type": "Feature",
      "properties": {
        "norad_id": 33912,
        "name": "COSMOS 2251 DEB",
        "group": "cosmos-2251-debris",
        "lat": 65.41771880751598,
        "lon": -15.921703562686991,
        "alt_km": 721.0864357980599,
        "timestamp": "2025-12-05T18:53:13.674679+00:00",
        "meta_object_name": "COSMOS 2251 DEB",
        "meta_object_id": "1993-036DR",
        "meta_epoch": "2025-12-05T02:26:13.355808",
        "meta_mean_motion": 14.51830771,
        "meta_eccentricity": 0.0011612,
        "meta_inclination": 74.0338,
        "meta_ra_of_asc_node": 204.1122,
        "meta_arg_of_pericenter": 282.9281,
        "meta_mean_anomaly": 205.0273,
        "meta_ephemeris_type": 0,
        "meta_classification_type": "U",
        "meta_norad_cat_id": 33912,
        "meta_element_set_no": 999,
        "meta_rev_at_epoch": 88322,
        "meta_bstar": 0.0015658527,
        "meta_mean_motion_dot": 6.287e-05,
        "meta_mean_motion_ddot": 0,
        "tle_line1": "1 33912U 93036DR  25339.10154347  .00006287  00000+0  15659-2 0  9996",
        "tle_line2": "2 33912  74.0338 204.1122 0011612 282.9281 205.0273 14.51830771883229"
      },
      "geometry": {
        "type": "Point",
        "coordinates": [
          -15.921703562686991,
          65.41771880751598
        ]
      }
    }
  ]
}